      2.10          N: GNSS NAV DATA                        RINEX VERSION / TYPE
fic2rin                                 12/21/2022 00:17:38 PGM / RUN BY / DATE
                                                            END OF HEADER
11 22 12 20 18  0  0.0 -.609178096056D-04 -.761701812735D-11  .000000000000D+00
     .134000000000D+03 -.135062500000D+03  .422160441820D-08 -.215504114038D+01
    -.689737498760D-05  .803854316473D-03  .633858144283D-05  .515368482018D+04
     .237600000000D+06 -.465661287308D-07 -.109854509705D+01 -.167638063431D-07
     .964400559177D+00  .259625000000D+03 -.276641898523D+01 -.800711924294D-08
    -.155363614375D-09  .100000000000D+01  .224100000000D+04  .000000000000D+00
     .240000000000D+01  .000000000000D+00 -.884756445885D-08  .134000000000D+03
     .230400000000D+06  .400000000000D+01
29 22 12 20 18  0  0.0 -.575308222324D-03 -.250111042988D-11  .000000000000D+00
     .560000000000D+02  .225000000000D+02  .436803908922D-08 -.153532293330D+01
     .110641121864D-05  .210154196247D-02  .709667801857D-06  .515360660362D+04
     .237600000000D+06 -.167638063431D-07 -.212273444958D+01 -.372529029846D-07
     .978433874418D+00  .375250000000D+03  .244963257179D+01 -.832427531091D-08
    -.821462788651D-11  .100000000000D+01  .224100000000D+04  .000000000000D+00
     .240000000000D+01  .000000000000D+00 -.102445483208D-07  .560000000000D+02
     .230400000000D+06  .400000000000D+01
32 22 12 20 18  0  0.0 -.336406286806D-03 -.130739863380D-10  .000000000000D+00
     .580000000000D+02  .187500000000D+00  .510199823299D-08 -.758501549926D+00
     .137835741043D-06  .633464776911D-02  .559911131859D-05  .515367358971D+04
     .237600000000D+06  .149011611938D-07  .934614726386D+00  .137835741043D-06
     .958750990456D+00  .270656250000D+03 -.229076112106D+01 -.827034449304D-08
     .168578450541D-09  .100000000000D+01  .224100000000D+04  .000000000000D+00
     .240000000000D+01  .000000000000D+00  .465661287308D-09  .580000000000D+02
     .230400000000D+06  .400000000000D+01
30 22 12 20 18  0  0.0 -.535047147423D-03  .682121026330D-12  .000000000000D+00
     .340000000000D+02 -.146562500000D+02  .525593321643D-08  .182574457860D+01
    -.653788447380D-06  .597627169918D-02  .983849167824D-05  .515366562080D+04
     .237600000000D+06 -.132247805595D-06  .200268870862D+01  .409781932831D-07
     .935301346987D+00  .179156250000D+03 -.266571003108D+01 -.829891711178D-08
    -.632526347261D-09  .100000000000D+01  .224100000000D+04  .000000000000D+00
     .240000000000D+01  .000000000000D+00  .372529029846D-08  .340000000000D+02
     .230400000000D+06  .400000000000D+01
26 22 12 20 18  0  0.0  .238802284002D-03  .795807864051D-12  .000000000000D+00
     .450000000000D+02  .129062500000D+03  .491413326480D-08  .305497109729D+00
     .680796802044D-05  .766507338267D-02  .905804336071D-05  .515361743927D+04
     .237600000000D+06  .109896063805D-06  .297501598554D+01  .117346644402D-06
     .935759088202D+00  .188250000000D+03  .415265946271D+00 -.830606026646D-08
    -.807176479283D-10  .100000000000D+01  .224100000000D+04  .000000000000D+00
     .240000000000D+01  .000000000000D+00  .698491930962D-08  .450000000000D+02
     .230400000000D+06  .400000000000D+01
15 22 12 20 18  0  0.0 -.243261456490D-05  .318323145621D-11  .000000000000D+00
     .102000000000D+03  .135625000000D+02  .556737476065D-08 -.245840298804D+01
     .488013029099D-06  .147389600752D-01  .538676977158D-05  .515364564133D+04
     .237600000000D+06  .242143869400D-06  .807875394979D+00  .931322574615D-08
     .931296142074D+00  .254750000000D+03  .116954884715D+01 -.833070415012D-08
     .470376735936D-09  .100000000000D+01  .224100000000D+04  .000000000000D+00
     .240000000000D+01  .000000000000D+00 -.107102096081D-07  .102000000000D+03
     .230400000000D+06  .400000000000D+01
24 22 12 20 18  0  0.0  .684289261699D-05 -.172803993337D-10  .000000000000D+00
     .910000000000D+02 -.185937500000D+02  .518914472013D-08  .285134532961D+01
    -.107847154140D-05  .135979296174D-01  .909529626369D-05  .515366517448D+04
     .237600000000D+06 -.502914190292D-07  .190619664801D+01 -.173225998878D-06
     .933656095187D+00  .188093750000D+03  .872066490647D+00 -.804390648956D-08
    -.547879964257D-09  .100000000000D+01  .224100000000D+04  .000000000000D+00
     .240000000000D+01  .000000000000D+00  .279396772385D-08  .910000000000D+02
     .230400000000D+06  .400000000000D+01
13 22 12 20 18  0  0.0  .445320270956D-03  .659383658785D-11  .000000000000D+00
     .880000000000D+02 -.340625000000D+01  .482091509618D-08 -.196853342333D+01
    -.255182385445D-06  .673485477455D-02  .531971454620D-05  .515365940285D+04
     .237600000000D+06  .987201929092D-07  .107990985847D+01 -.204890966415D-07
     .968927440677D+00  .279562500000D+03  .951918330625D+00 -.803819196582D-08
     .161792453591D-09  .100000000000D+01  .224100000000D+04  .000000000000D+00
     .240000000000D+01  .000000000000D+00 -.116415321827D-07  .880000000000D+02
     .230400000000D+06  .400000000000D+01
27 22 12 20 18  0  0.0  .148093793541D-03 -.989075488178D-11  .000000000000D+00
     .110000000000D+03  .273750000000D+02  .451947396852D-08 -.146595926066D+01
     .151991844177D-05  .109665595228D-01  .452622771263D-06  .515366179466D+04
     .237600000000D+06  .178813934326D-06 -.220106162755D+01 -.102445483208D-06
     .969701520372D+00  .374656250000D+03  .684971799665D+00 -.839392106908D-08
     .507163982558D-10  .100000000000D+01  .224100000000D+04  .000000000000D+00
     .240000000000D+01  .000000000000D+00  .139698386192D-08  .110000000000D+03
     .230400000000D+06  .400000000000D+01
25 22 12 20 18  0  0.0  .403844751418D-03  .352429196937D-11  .000000000000D+00
     .720000000000D+02  .118750000000D+03  .446375736198D-08  .108656318648D+01
     .626035034657D-05  .109807213303D-01  .962987542152D-05  .515358399200D+04
     .237600000000D+06 -.169500708580D-06  .302770486587D+01  .931322574615D-07
     .954984526459D+00  .191375000000D+03  .100888200241D+01 -.817105464294D-08
    -.111790370803D-09  .100000000000D+01  .224100000000D+04  .000000000000D+00
     .240000000000D+01  .000000000000D+00  .558793544769D-08  .720000000000D+02
     .230400000000D+06  .400000000000D+01
14 22 12 20 18  0  0.0 -.647911801934D-04  .659383658785D-11  .000000000000D+00
     .450000000000D+02  .136343750000D+03  .456769026263D-08  .120053657247D+01
     .711157917976D-05  .246303551830D-02  .952370464802D-05  .515367062950D+04
     .237600000000D+06  .502914190292D-07  .307196477502D+01 -.260770320892D-07
     .950758779331D+00  .188468750000D+03 -.306049227594D+01 -.813712465819D-08
    -.260725145963D-10  .100000000000D+01  .224100000000D+04  .000000000000D+00
     .240000000000D+01  .000000000000D+00 -.791624188423D-08  .301000000000D+03
     .230400000000D+06  .400000000000D+01
18 22 12 20 18  0  0.0 -.666263513267D-04 -.147792889038D-10  .000000000000D+00
     .114000000000D+03 -.123937500000D+03  .413088635371D-08  .270516398517D+01
    -.644847750664D-05  .296518637333D-02  .702589750290D-05  .515370874786D+04
     .237600000000D+06 -.521540641785D-07 -.113187284323D+01  .186264514923D-07
     .972920580905D+00  .250875000000D+03 -.311350371653D+01 -.794140221985D-08
    -.218580533328D-09  .100000000000D+01  .224100000000D+04  .000000000000D+00
     .240000000000D+01  .000000000000D+00 -.838190317154D-08  .626000000000D+03
     .230400000000D+06  .400000000000D+01
23 22 12 20 18  0  0.0  .455882400274D-06  .795807864051D-12  .000000000000D+00
     .172000000000D+03 -.305937500000D+02  .407588406265D-08  .171197425149D+01
    -.162050127983D-05  .294589588884D-02  .111255794764D-04  .515364368629D+04
     .237600000000D+06 -.670552253723D-07 -.132473099842D+00  .409781932831D-07
     .971983077168D+00  .169968750000D+03  .312410123115D+01 -.768389149349D-08
     .487877464912D-09  .100000000000D+01  .224100000000D+04  .000000000000D+00
     .240000000000D+01  .000000000000D+00 -.838190317154D-08  .940000000000D+03
     .230400000000D+06  .400000000000D+01
15 22 12 20 17 59 44.0 -.243354588747D-05  .318323145621D-11  .000000000000D+00
     .300000000000D+01  .135625000000D+02  .556701760291D-08 -.246073682222D+01
     .488013029099D-06  .147389608901D-01  .538676977158D-05  .515364564896D+04
     .237584000000D+06  .242143869400D-06  .807875509086D+00  .931322574615D-08
     .931296120130D+00  .254750000000D+03  .116954891005D+01 -.833034699239D-08
     .470376735936D-09  .100000000000D+01  .224100000000D+04  .000000000000D+00
     .240000000000D+01  .000000000000D+00 -.107102096081D-07  .300000000000D+01
     .236220000000D+06  .400000000000D+01
25 22 12 20 17 59 44.0  .403844285756D-03  .352429196937D-11  .000000000000D+00
     .120000000000D+02  .118750000000D+03  .446411451972D-08  .108422859159D+01
     .626035034657D-05  .109807165572D-01  .962987542152D-05  .515358398819D+04
     .237584000000D+06 -.169500708580D-06  .302770500192D+01  .931322574615D-07
     .954984530847D+00  .191375000000D+03  .100888275435D+01 -.817141180067D-08
    -.111790370803D-09  .100000000000D+01  .224100000000D+04  .000000000000D+00
     .240000000000D+01  .000000000000D+00  .558793544769D-08  .120000000000D+02
     .236400000000D+06  .400000000000D+01
19 22 12 20 17 59 28.0  .253121834248D-03  .511590769747D-11  .000000000000D+00
     .700000000000D+01  .226562500000D+02  .455233248006D-08  .598022102067D+00
     .877305865288D-06  .902096345089D-02  .914558768272D-06  .515373892212D+04
     .237568000000D+06  .800937414169D-07 -.209178060105D+01 -.987201929092D-07
     .975209263575D+00  .372656250000D+03  .222399443377D+01 -.851999774925D-08
    -.682171272315D-10  .100000000000D+01  .224100000000D+04  .000000000000D+00
     .240000000000D+01  .630000000000D+02 -.153668224812D-07  .700000000000D+01
     .236700000000D+06  .400000000000D+01
